SAUDISAT 1C             
1 27607U 02058C   21030.46342143  .00000004  00000+0  20836-4 0  9996
2 27607  64.5557  40.2888 0029476  81.5764 278.8678 14.75706820974191
SAUDISAT 2              
1 28371U 04025F   21030.46879478 -.00000091  00000+0 -10303-4 0  9993
2 28371  98.3097 343.4182 0025326 210.7687 149.2008 14.54410924880175
SAUDISAT 3              
1 31118U 07012B   21030.42854656  .00000013  00000+0  10229-4 0  9991
2 31118  97.9034 346.7595 0015235   4.3714 355.7622 14.69189127739290
PISAT                   
1 41784U 16059B   21030.41187766  .00000105  00000+0  29266-4 0  9995
2 41784  97.9886  86.3594 0030957 319.7657  40.1254 14.63582980232100
FLYING LAPTOP           
1 42831U 17042G   21030.60673886  .00000628  00000+0  68345-4 0  9997
2 42831  97.4901 267.4731 0012627 244.6557 115.3401 14.91232217193146
SALSAT                  
1 46495U 20068K   21030.55382875  .00000620  00000+0  50103-4 0  9993
2 46495  97.6831 328.9807 0017378 173.5006 186.6446 15.03342548 18615
